1 27424U 02022A   12098.09160050  .00000696  00000-0  16463-3 0  2689
2 27424 098.2284 039.6940 0001371 090.2549 269.8818 14.57100043528019